OBJECT_NAME,OBJECT_ID,EPOCH,MEAN_MOTION,ECCENTRICITY,INCLINATION,RA_OF_ASC_NODE,ARG_OF_PERICENTER,MEAN_ANOMALY,EPHEMERIS_TYPE,CLASSIFICATION_TYPE,NORAD_CAT_ID,ELEMENT_SET_NO,REV_AT_EPOCH,BSTAR,MEAN_MOTION_DOT,MEAN_MOTION_DDOT
CUTE-1 (CO-55),2003-031E,2026-07-02T20:13:49.342944,14.24345535,.0010444,98.6736,192.2049,134.8646,225.3383,0,U,27844,999,19390,.16429785E-3,.336E-5,0
CUBESAT XI-IV (CO-57),2003-031J,2026-07-02T18:27:18.924192,14.23629228,.00099897,98.6769,191.8320,152.4134,207.7577,0,U,27848,999,19359,.14165898E-3,.279E-5,0
CUBESAT XI-V,2005-043F,2026-07-02T16:34:05.847744,14.72675255,.00146988,98.3002,339.6391,152.1460,208.0536,0,U,28895,999,10403,.27822672E-3,.1723E-4,0
CUTE-1.7+APD II (CO-65),2008-021C,2026-07-03T05:22:38.856576,15.09607835,.00080854,97.8286,165.9782,346.2326,13.8680,0,U,32785,999,98761,.37225811E-3,.5922E-4,0
CANX-2,2008-021H,2026-07-02T16:57:00.539136,15.05726016,.00100522,97.8637,163.7870,0.8570,359.2672,0,U,32790,999,98714,.33424504E-3,.4776E-4,0
SEEDS II (CO-66),2008-021J,2026-07-02T19:13:39.277920,15.33292646,.00015044,97.7521,182.4499,186.8338,173.2883,0,U,32791,999,98968,.62654245E-3,.20103E-3,0
SWISSCUBE,2009-051B,2026-07-02T06:55:50.388096,14.62510844,.0007062,98.4025,91.4397,154.9157,205.2388,0,U,35932,999,89136,.23926E-3,.1164E-4,0
BEESAT-1,2009-051C,2026-07-02T07:20:46.114656,14.61745142,.0005269,98.3950,91.0608,165.6666,194.4685,0,U,35933,999,89139,.20391E-3,.968E-5,0
ITUPSAT1,2009-051E,2026-07-01T23:13:26.434848,14.60462418,.00071225,98.4034,89.8935,182.8141,177.3019,0,U,35935,999,89089,.17831616E-3,.816E-5,0
TISAT 1,2010-035E,2026-07-02T19:01:52.527648,15.32310970,.00034184,98.0713,131.7335,142.3895,217.7584,0,U,36799,999,87009,.72452703E-3,.22562E-3,0
AEROCUBE 4.5A,2012-048K,2026-06-29T19:35:03.540480,16.17962819,.00188678,64.6148,340.0554,267.4936,92.4076,0,U,38767,999,37468,.11805476E-2,.2026816E-1,.7424434E-5
STRAND-1,2013-009E,2026-07-02T10:37:01.821216,14.37172679,.0008617,98.3927,3.3015,177.2756,182.8479,0,U,39090,999,69925,.12561E-3,.331E-5,0
BRITE-AUSTRIA,2013-009F,2026-07-02T17:46:16.587264,14.36548421,.00099688,98.4001,2.7917,186.9933,173.1116,0,U,39091,999,69928,.86788134E-4,.212E-5,0
NEE-01 PEGASO,2013-018B,2026-07-02T08:06:57.360960,14.93736499,.0013773,98.1242,327.9905,112.9357,247.3317,0,U,39151,999,71296,.3337E-3,.3478E-4,0
POPACS 2,2013-055E,2026-07-02T19:25:31.596672,14.91638793,.04160469,80.9919,126.3077,143.6252,219.4027,0,U,39269,999,66554,.25833653E-3,.15668E-3,-.809728E-6
POPACS 3,2013-055F,2026-07-02T18:49:34.796064,14.56416328,.05504295,80.9990,212.2734,22.5213,339.9158,0,U,39270,999,64082,.24058117E-3,.10186E-3,0
ZACUBE-1 (TSHEPISOSAT),2013-066B,2026-07-02T22:30:10.700640,15.01274948,.00429948,97.8039,146.3543,194.6737,165.3242,0,U,39417,999,68309,.25815459E-3,.332E-4,0
WNISAT-1,2013-066H,2026-07-02T15:38:45.471552,14.58096043,.01629774,97.7221,331.7119,182.6990,177.3349,0,U,39423,999,66898,.27566211E-3,.1475E-4,0
TRITON-1,2013-066M,2026-07-03T16:55:59.195136,14.81759508,.00896599,97.8237,94.1360,179.4899,180.6422,0,U,39427,999,67653,.22929888E-3,.1882E-4,0
GOMX-1,2013-066Q,2026-07-03T15:56:22.598880,14.69515976,.01293154,97.6468,24.0866,25.1832,335.5606,0,U,39430,999,67233,.29995621E-3,.1971E-4,0
CUBEBUG-2 (LO-74),2013-066AA,2026-07-03T08:09:42.775488,14.93897760,.00565719,97.8916,133.3880,335.6744,24.1807,0,U,39440,999,67940,.49417308E-3,.5361E-4,0
NEE-02 KRYSAOR,2013-066AB,2026-07-03T07:05:18.193344,14.86694504,.0066538,97.8895,123.3958,18.3345,342.0247,0,U,39441,999,67859,.32803161E-3,.2977E-4,0
FUNCUBE-1 (AO-73),2013-066AE,2026-07-02T19:58:49.417824,15.09682031,.00373159,97.8285,155.6072,147.9891,212.3615,0,U,39444,999,68202,.50719688E-3,.8238E-4,0
UWE-3,2013-066AG,2026-07-02T20:32:11.323104,14.97140347,.00471888,97.8709,140.0374,267.5766,92.0052,0,U,39446,999,67992,.33854688E-3,.3935E-4,0
BRITE-CA1 (TORONTO),2014-033L,2026-07-02T19:13:13.805472,14.72703454,.00776097,97.9759,312.4427,226.2184,133.2586,0,U,40020,999,64451,.1826715E-3,.1167E-4,0
DUCHIFAT-1,2014-033M,2026-07-02T02:25:15.934368,15.67889029,.00000967,98.0445,244.3920,180.5510,179.5749,0,U,40021,999,65808,.12874894E-2,.143832E-2,0
NANOSATC-BR1,2014-033Q,2026-07-02T19:39:18.117216,15.31971066,.00052142,98.0706,217.5968,125.2783,234.8945,0,U,40024,999,65637,.67311352E-3,.20733E-3,0
QB50P1,2014-033R,2026-07-02T18:26:57.033024,15.18500631,.00094377,98.0961,196.0094,162.0321,198.1247,0,U,40025,999,65539,.46934796E-3,.962E-4,0
QB50P2,2014-033Y,2026-07-02T18:01:13.897920,15.15363125,.00091631,98.0751,181.6017,118.5652,241.6502,0,U,40032,999,65502,.45244956E-3,.8472E-4,0
PERSEUS-M2,2014-033AD,2026-07-03T14:08:22.142688,14.95555499,.00105384,97.9971,135.4649,243.4644,116.5496,0,U,40037,999,65323,.10546541E-3,.1109E-4,0
